{"type": "FeatureCollection", "features": [ {"type": "Feature", "properties": {"norad_id": 43437, "name": "SENTINEL-3B", "group": "resource", "lat": -72.19676947092474, "lon": 94.12253059017318, "alt_km": 810.9968625613928, "timestamp": "2025-12-26T22:28:05.436909+00:00", "meta": {"OBJECT_NAME": "SENTINEL-3B", "OBJECT_ID": "2018-039A", "EPOCH": "2025-12-26T16:05:01.913856", "MEAN_MOTION": 14.2673937, "ECCENTRICITY": 0.000157, "INCLINATION": 98.6249, "RA_OF_ASC_NODE": 65.6546, "ARG_OF_PERICENTER": 87.9796, "MEAN_ANOMALY": 272.1564, "EPHEMERIS_TYPE": 0, "CLASSIFICATION_TYPE": "U", "NORAD_CAT_ID": 43437, "ELEMENT_SET_NO": 999, "REV_AT_EPOCH": 39952, "BSTAR": 7.7314e-05, "MEAN_MOTION_DOT": 1.43e-06, "MEAN_MOTION_DDOT": 0}, "tle": {"line1": "1 43437U 18039A   25360.67016104  .00000143  00000+0  77314-4 0  9996", "line2": "2 43437  98.6249  65.6546 0001570  87.9796 272.1564 14.26739370399529"}}, "geometry": {"type": "Point", "coordinates": [94.12253059017318, -72.19676947092474]}}, {"type": "Feature", "properties": {"norad_id": 43461, "name": "GAOFEN-5 01", "group": "resource", "lat": -13.499286327119261, "lon": 142.11138865908416, "alt_km": 696.0055439877688, "timestamp": "2025-12-26T22:28:05.436920+00:00", "meta": {"OBJECT_NAME": "GAOFEN-5 01", "OBJECT_ID": "2018-043A", "EPOCH": "2025-12-26T18:17:45.839040", "MEAN_MOTION": 14.60424705, "ECCENTRICITY": 5.92e-05, "INCLINATION": 98.4347, "RA_OF_ASC_NODE": 323.9759, "ARG_OF_PERICENTER": 226.7567, "MEAN_ANOMALY": 133.3583, "EPHEMERIS_TYPE": 0, "CLASSIFICATION_TYPE": "U", "NORAD_CAT_ID": 43461, "ELEMENT_SET_NO": 999, "REV_AT_EPOCH": 40652, "BSTAR": 0.0001151, "MEAN_MOTION_DOT": 5.09e-06, "MEAN_MOTION_DDOT": 0}, "tle": {"line1": "1 43461U 18043A   25360.76233610  .00000509  00000+0  11510-3 0  9992", "line2": "2 43461  98.4347 323.9759 0000592 226.7567 133.3583 14.60424705406520"}}, "geometry": {"type": "Point", "coordinates": [142.11138865908416, -13.499286327119261]}}, {"type": "Feature", "properties": {"norad_id": 43484, "name": "GAOFEN-6", "group": "resource", "lat": -65.92138685883582, "lon": 82.58966679700121, "alt_km": 647.0649941926895, "timestamp": "2025-12-26T22:28:05.436930+00:00", "meta": {"OBJECT_NAME": "GAOFEN-6", "OBJECT_ID": "2018-048A", "EPOCH": "2025-12-26T17:53:32.572032", "MEAN_MOTION": 14.76591305, "ECCENTRICITY": 0.0012449, "INCLINATION": 97.8007, "RA_OF_ASC_NODE": 64.5408, "ARG_OF_PERICENTER": 21.7527, "MEAN_ANOMALY": 338.421, "EPHEMERIS_TYPE": 0, "CLASSIFICATION_TYPE": "U", "NORAD_CAT_ID": 43484, "ELEMENT_SET_NO": 999, "REV_AT_EPOCH": 40794, "BSTAR": 0.0001634, "MEAN_MOTION_DOT": 1.092e-05, "MEAN_MOTION_DDOT": 0}, "tle": {"line1": "1 43484U 18048A   25360.74551588  .00001092  00000+0  16340-3 0  9991", "line2": "2 43484  97.8007  64.5408 0012449  21.7527 338.4210 14.76591305407943"}}, "geometry": {"type": "Point", "coordinates": [82.58966679700121, -65.92138685883582]}}, {"type": "Feature", "properties": {"norad_id": 43585, "name": "GAOFEN-11 01", "group": "resource", "lat": -35.62105105268295, "lon": -121.40977714590737, "alt_km": 421.7562420401355, "timestamp": "2025-12-26T22:28:05.436941+00:00", "meta": {"OBJECT_NAME": "GAOFEN-11 01", "OBJECT_ID": "2018-063A", "EPOCH": "2025-12-26T18:26:22.958592", "MEAN_MOTION": 15.49614651, "ECCENTRICITY": 0.0003989, "INCLINATION": 97.1534, "RA_OF_ASC_NODE": 63.5865, "ARG_OF_PERICENTER": 240.2494, "MEAN_ANOMALY": 119.8361, "EPHEMERIS_TYPE": 0, "CLASSIFICATION_TYPE": "U", "NORAD_CAT_ID": 43585, "ELEMENT_SET_NO": 999, "REV_AT_EPOCH": 41359, "BSTAR": 0.0002443, "MEAN_MOTION_DOT": 0.00013424, "MEAN_MOTION_DDOT": 0}, "tle": {"line1": "1 43585U 18063A   25360.76832128  .00013424  00000+0  24430-3 0  9995", "line2": "2 43585  97.1534  63.5865 0003989 240.2494 119.8361 15.49614651413596"}}, "geometry": {"type": "Point", "coordinates": [-121.40977714590737, -35.62105105268295]}}, {"type": "Feature", "properties": {"norad_id": 43613, "name": "ICESAT-2", "group": "resource", "lat": -51.08000354397602, "lon": -112.94669588880313, "alt_km": 490.08958015645567, "timestamp": "2025-12-26T22:28:05.436953+00:00", "meta": {"OBJECT_NAME": "ICESAT-2", "OBJECT_ID": "2018-070A", "EPOCH": "2025-12-26T17:58:37.733376", "MEAN_MOTION": 15.28278156, "ECCENTRICITY": 0.0003222, "INCLINATION": 92.0036, "RA_OF_ASC_NODE": 244.518, "ARG_OF_PERICENTER": 108.5082, "MEAN_ANOMALY": 251.6518, "EPHEMERIS_TYPE": 0, "CLASSIFICATION_TYPE": "U", "NORAD_CAT_ID": 43613, "ELEMENT_SET_NO": 999, "REV_AT_EPOCH": 40612, "BSTAR": 0.00047719, "MEAN_MOTION_DOT": 0.00013147, "MEAN_MOTION_DDOT": 0}, "tle": {"line1": "1 43613U 18070A   25360.74904784  .00013147  00000+0  47719-3 0  9998", "line2": "2 43613  92.0036 244.5180 0003222 108.5082 251.6518 15.28278156406122"}}, "geometry": {"type": "Point", "coordinates": [-112.94669588880313, -51.08000354397602]}}, {"type": "Feature", "properties": {"norad_id": 43719, "name": "HYSIS", "group": "resource", "lat": 73.05251233105741, "lon": 36.3307489950058, "alt_km": 625.9808454757904, "timestamp": "2025-12-26T22:28:05.436963+00:00", "meta": {"OBJECT_NAME": "HYSIS", "OBJECT_ID": "2018-096A", "EPOCH": "2025-12-26T17:15:29.037312", "MEAN_MOTION": 14.78681831, "ECCENTRICITY": 7.68e-05, "INCLINATION": 98.0074, "RA_OF_ASC_NODE": 63.6273, "ARG_OF_PERICENTER": 52.8343, "MEAN_ANOMALY": 307.2938, "EPHEMERIS_TYPE": 0, "CLASSIFICATION_TYPE": "U", "NORAD_CAT_ID": 43719, "ELEMENT_SET_NO": 999, "REV_AT_EPOCH": 38193, "BSTAR": 0.00015937, "MEAN_MOTION_DOT": 1.116e-05, "MEAN_MOTION_DDOT": 0}, "tle": {"line1": "1 43719U 18096A   25360.71908608  .00001116  00000+0  15937-3 0  9999", "line2": "2 43719  98.0074  63.6273 0000768  52.8343 307.2938 14.78681831381930"}}, "geometry": {"type": "Point", "coordinates": [36.3307489950058, 73.05251233105741]}}, {"type": "Feature", "properties": {"norad_id": 43783, "name": "KAZSTSAT", "group": "resource", "lat": -71.50386772515945, "lon": 58.53898347289302, "alt_km": 571.9387505309069, "timestamp": "2025-12-26T22:28:05.436974+00:00", "meta": {"OBJECT_NAME": "KAZSTSAT", "OBJECT_ID": "2018-099AB", "EPOCH": "2025-12-26T14:47:05.534592", "MEAN_MOTION": 14.99374835, "ECCENTRICITY": 0.0006417, "INCLINATION": 97.451, "RA_OF_ASC_NODE": 35.2021, "ARG_OF_PERICENTER": 268.436, "MEAN_ANOMALY": 91.6129, "EPHEMERIS_TYPE": 0, "CLASSIFICATION_TYPE": "U", "NORAD_CAT_ID": 43783, "ELEMENT_SET_NO": 999, "REV_AT_EPOCH": 38544, "BSTAR": 7.1084e-05, "MEAN_MOTION_DOT": 8.14e-06, "MEAN_MOTION_DDOT": 0}, "tle": {"line1": "1 43783U 18099AB  25360.61603628  .00000814  00000+0  71084-4 0  9996", "line2": "2 43783  97.4510  35.2021 0006417 268.4360  91.6129 14.99374835385448"}}, "geometry": {"type": "Point", "coordinates": [58.53898347289302, -71.50386772515945]}}, {"type": "Feature", "properties": {"norad_id": 43831, "name": "SAUDISAT 5A", "group": "resource", "lat": -64.61341938254567, "lon": -134.8930977198064, "alt_km": 501.7764803019809, "timestamp": "2025-12-26T22:28:05.436984+00:00", "meta": {"OBJECT_NAME": "SAUDISAT 5A", "OBJECT_ID": "2018-102A", "EPOCH": "2025-12-26T18:14:49.926048", "MEAN_MOTION": 15.25829349, "ECCENTRICITY": 0.0010937, "INCLINATION": 97.333, "RA_OF_ASC_NODE": 60.6803, "ARG_OF_PERICENTER": 32.3807, "MEAN_ANOMALY": 327.8101, "EPHEMERIS_TYPE": 0, "CLASSIFICATION_TYPE": "U", "NORAD_CAT_ID": 43831, "ELEMENT_SET_NO": 999, "REV_AT_EPOCH": 38936, "BSTAR": 0.00025237, "MEAN_MOTION_DOT": 6.395e-05, "MEAN_MOTION_DDOT": 0}, "tle": {"line1": "1 43831U 18102A   25360.76030007  .00006395  00000+0  25237-3 0  9994", "line2": "2 43831  97.3330  60.6803 0010937  32.3807 327.8101 15.25829349389361"}}, "geometry": {"type": "Point", "coordinates": [-134.8930977198064, -64.61341938254567]}}, {"type": "Feature", "properties": {"norad_id": 43833, "name": "SAUDISAT 5B", "group": "resource", "lat": -44.06623828186886, "lon": 70.7869543884855, "alt_km": 492.35611983022045, "timestamp": "2025-12-26T22:28:05.436995+00:00", "meta": {"OBJECT_NAME": "SAUDISAT 5B", "OBJECT_ID": "2018-102C", "EPOCH": "2025-12-26T17:56:31.110720", "MEAN_MOTION": 15.26173643, "ECCENTRICITY": 0.0011699, "INCLINATION": 97.3426, "RA_OF_ASC_NODE": 63.4317, "ARG_OF_PERICENTER": 34.3987, "MEAN_ANOMALY": 325.8006, "EPHEMERIS_TYPE": 0, "CLASSIFICATION_TYPE": "U", "NORAD_CAT_ID": 43833, "ELEMENT_SET_NO": 999, "REV_AT_EPOCH": 38947, "BSTAR": 0.00023972, "MEAN_MOTION_DOT": 6.135e-05, "MEAN_MOTION_DDOT": 0}, "tle": {"line1": "1 43833U 18102C   25360.74758230  .00006135  00000+0  23972-3 0  9995", "line2": "2 43833  97.3426  63.4317 0011699  34.3987 325.8006 15.26173643389471"}}, "geometry": {"type": "Point", "coordinates": [70.7869543884855, -44.06623828186886]}}, {"type": "Feature", "properties": {"norad_id": 44622, "name": "GAOFEN-10R", "group": "resource", "lat": -31.04737249840919, "lon": 123.62479728284343, "alt_km": 630.4960667307878, "timestamp": "2025-12-26T22:28:05.437005+00:00", "meta": {"OBJECT_NAME": "GAOFEN-10R", "OBJECT_ID": "2019-066A", "EPOCH": "2025-12-26T18:16:44.641920", "MEAN_MOTION": 14.8284001, "ECCENTRICITY": 0.000684, "INCLINATION": 98.0296, "RA_OF_ASC_NODE": 308.3243, "ARG_OF_PERICENTER": 0.2859, "MEAN_ANOMALY": 359.8357, "EPHEMERIS_TYPE": 0, "CLASSIFICATION_TYPE": "U", "NORAD_CAT_ID": 44622, "ELEMENT_SET_NO": 999, "REV_AT_EPOCH": 33682, "BSTAR": 0.00023517, "MEAN_MOTION_DOT": 1.85e-05, "MEAN_MOTION_DDOT": 0}, "tle": {"line1": "1 44622U 19066A   25360.76162780  .00001850  00000+0  23517-3 0  9997", "line2": "2 44622  98.0296 308.3243 0006840   0.2859 359.8357 14.82840010336829"}}, "geometry": {"type": "Point", "coordinates": [123.62479728284343, -31.04737249840919]}}]}